      2.10          N: GNSS NAV DATA                        RINEX VERSION / TYPE
fic2rin                                 10/06/2022 00:17:58 PGM / RUN BY / DATE
                                                            END OF HEADER
20 22 10  5 22  0  0.0  .480765011162D-03 -.306954461848D-11  .000000000000D+00
     .110000000000D+03 -.430000000000D+02  .504378152232D-08  .302704712327D+01
    -.215321779251D-05  .478678336367D-02  .226870179176D-05  .515366227722D+04
     .338400000000D+06 -.968575477600D-07  .111124149974D+01 -.689178705215D-07
     .944773557222D+00  .324906250000D+03 -.308020045083D+01 -.857464288258D-08
     .442875590403D-10  .100000000000D+01  .223000000000D+04  .000000000000D+00
     .485000000000D+01  .000000000000D+00 -.838190317154D-08  .110000000000D+03
     .331200000000D+06  .400000000000D+01
20 22 10  5 21 59 44.0  .480766873807D-03 -.306954461848D-11  .000000000000D+00
     .000000000000D+00 -.430000000000D+02  .504378152232D-08  .302471351877D+01
    -.215321779251D-05  .478678278159D-02  .226870179176D-05  .515366228485D+04
     .338384000000D+06 -.968575477600D-07  .111124164310D+01 -.689178705215D-07
     .944773548445D+00  .324906250000D+03 -.308020065417D+01 -.857464288258D-08
     .442875590403D-10  .100000000000D+01  .223000000000D+04  .000000000000D+00
     .240000000000D+01  .000000000000D+00 -.838190317154D-08  .000000000000D+00
     .338370000000D+06  .400000000000D+01
20 22 10  5 23 59 44.0  .480744522065D-03 -.306954461848D-11  .000000000000D+00
     .400000000000D+01 -.327812500000D+02  .500377985609D-08 -.220812359394D+01
    -.164844095707D-05  .478549534455D-02  .207871198654D-05  .515366505814D+04
     .345584000000D+06 -.316649675369D-07  .111117979385D+01 -.111758708954D-06
     .944773871750D+00  .329062500000D+03 -.308035792079D+01 -.859107213835D-08
     .692886004340D-10  .100000000000D+01  .223000000000D+04  .000000000000D+00
     .240000000000D+01  .000000000000D+00 -.838190317154D-08  .400000000000D+01
     .338400000000D+06  .400000000000D+01
10 22 10  6  0  0  0.0 -.625476241112D-05 -.159161572810D-11  .000000000000D+00
     .900000000000D+01 -.645937500000D+02  .443839916285D-08  .992736277348D+00
    -.328384339809D-05  .799719290808D-02  .291131436825D-05  .515368361473D+04
     .345600000000D+06 -.132247805595D-06  .127028557188D+01  .113621354103D-06
     .975065021315D+00  .331593750000D+03 -.251131866602D+01 -.840213569696D-08
    -.201079804352D-09  .100000000000D+01  .223000000000D+04  .000000000000D+00
     .240000000000D+01  .000000000000D+00  .232830643654D-08  .900000000000D+01
     .338400000000D+06  .400000000000D+01
8  22 10  6  0  0  0.0 -.875736586750D-04 -.170530256582D-11  .000000000000D+00
     .600000000000D+01  .164375000000D+02  .426124892669D-08 -.104316410806D+01
     .845640897751D-06  .758375297301D-02  .115055590868D-04  .515360268021D+04
     .345600000000D+06  .856816768646D-07 -.844416556288D+00 -.158324837685D-06
     .961851245948D+00  .159875000000D+03  .162300602392D+00 -.787497088129D-08
    -.471091051405D-09  .100000000000D+01  .223000000000D+04  .000000000000D+00
     .240000000000D+01  .000000000000D+00  .512227416039D-08  .600000000000D+01
     .338400000000D+06  .400000000000D+01
7  22 10  6  0  0  0.0  .301513820887D-03 -.352429196937D-11  .000000000000D+00
     .330000000000D+02  .402187500000D+02  .484770192624D-08  .235756819953D+01
     .199116766453D-05  .164097043453D-01  .930763781071D-05  .515363104820D+04
     .345600000000D+06 -.707805156708D-07 -.291190315705D+01 -.376254320145D-06
     .951015073801D+00  .195531250000D+03 -.224119829772D+01 -.790032908042D-08
     .581452791271D-09  .100000000000D+01  .223000000000D+04  .000000000000D+00
     .240000000000D+01  .000000000000D+00 -.111758708954D-07  .330000000000D+02
     .338400000000D+06  .400000000000D+01
5  22 10  6  0  0  0.0 -.992878340185D-04 -.147792889038D-11  .000000000000D+00
     .850000000000D+02 -.545312500000D+02  .467019453235D-08 -.797883971710D+00
    -.263564288616D-05  .599729304668D-02  .289827585220D-05  .515354263878D+04
     .345600000000D+06 -.279396772385D-07  .122950311116D+01  .670552253723D-07
     .962322573284D+00  .322218750000D+03  .113330009829D+01 -.849213944598D-08
    -.175007289756D-10  .100000000000D+01  .223000000000D+04  .000000000000D+00
     .240000000000D+01  .000000000000D+00 -.111758708954D-07  .850000000000D+02
     .338400000000D+06  .400000000000D+01
3  22 10  6  0  0  0.0 -.361009500921D-03 -.488853402203D-11  .000000000000D+00
     .105000000000D+03 -.616562500000D+02  .435732435719D-08  .188378391649D+01
    -.329315662384D-05  .450211006682D-02  .233016908169D-05  .515354070091D+04
     .345600000000D+06  .130385160446D-07  .127298695983D+01 -.204890966415D-07
     .975283847527D+00  .342093750000D+03  .107003864318D+01 -.831998941810D-08
    -.100361323309D-09  .100000000000D+01  .223000000000D+04  .000000000000D+00
     .240000000000D+01  .000000000000D+00  .186264514923D-08  .105000000000D+03
     .338400000000D+06  .400000000000D+01
2  22 10  6  0  0  0.0 -.643503852189D-03  .147792889038D-11  .000000000000D+00
     .830000000000D+02  .937500000000D+02  .409945647310D-08  .240201884687D+01
     .484660267830D-05  .200146896532D-01  .622868537903D-05  .515489751434D+04
     .345600000000D+06  .257045030594D-06  .146405748764D+00  .391155481339D-07
     .966878091405D+00  .255718750000D+03 -.139168976686D+01 -.767567686561D-08
     .146791828755D-09  .100000000000D+01  .223000000000D+04  .000000000000D+00
     .240000000000D+01  .000000000000D+00 -.172294676304D-07  .830000000000D+02
     .338400000000D+06  .400000000000D+01
1  22 10  6  0  0  0.0  .272250268608D-03 -.625277607469D-11  .000000000000D+00
     .850000000000D+02  .991562500000D+02  .373729853063D-08  .298424898087D+01
     .503100454807D-05  .120058484608D-01  .638514757156D-05  .515365959167D+04
     .345600000000D+06 -.279396772385D-07  .240384921340D+00 -.143423676491D-06
     .988948163626D+00  .267312500000D+03  .944201347056D+00 -.770353516888D-08
     .313584490624D-09  .100000000000D+01  .223000000000D+04  .000000000000D+00
     .240000000000D+01  .000000000000D+00  .512227416039D-08  .850000000000D+02
     .338400000000D+06  .400000000000D+01
6  22 10  6  0  0  0.0  .482669565827D-03  .113686837722D-10  .000000000000D+00
     .104000000000D+03  .817812500000D+02  .380694428880D-08 -.306835841571D+01
     .430084764957D-05  .246687943581D-02  .645592808723D-05  .515353563690D+04
     .345600000000D+06  .428408384323D-07  .232114608025D+00  .223517417908D-07
     .988248599127D+00  .272187500000D+03 -.901078689933D+00 -.783282626865D-08
     .241795786051D-09  .100000000000D+01  .223000000000D+04  .000000000000D+00
     .240000000000D+01  .000000000000D+00  .372529029846D-08  .104000000000D+03
     .338400000000D+06  .400000000000D+01
4  22 10  6  0  0  0.0 -.108144246042D-03  .591171556152D-11  .000000000000D+00
     .235000000000D+03 -.882500000000D+02  .423267630796D-08 -.138895039278D+01
    -.477209687233D-05  .206244818401D-02  .110398977995D-04  .515375292969D+04
     .345600000000D+06 -.372529029846D-08  .235479895412D+01 -.260770320892D-07
     .961926802741D+00  .166687500000D+03 -.310416533551D+01 -.782246869436D-08
     .789318592573D-10  .100000000000D+01  .223000000000D+04  .000000000000D+00
     .240000000000D+01  .000000000000D+00 -.465661287308D-08  .747000000000D+03
     .338400000000D+06  .400000000000D+01
21 22 10  6  0  0  0.0  .158475246280D-03 -.568434188608D-12  .000000000000D+00
     .600000000000D+01  .949062500000D+02  .448697261471D-08 -.103994447553D+01
     .499002635479D-05  .243651644560D-01  .762380659580D-05  .515369717979D+04
     .345600000000D+06 -.344589352608D-06  .143228735423D+00 -.128522515297D-06
     .961189088264D+00  .240843750000D+03 -.886444473776D+00 -.848249618716D-08
     .554665961207D-09  .100000000000D+01  .223000000000D+04  .000000000000D+00
     .240000000000D+01  .000000000000D+00 -.102445483208D-07  .600000000000D+01
     .338400000000D+06  .400000000000D+01
27 22 10  6  0  0  0.0  .202549621463D-03 -.568434188608D-11  .000000000000D+00
     .150000000000D+02  .280937500000D+02  .411802867528D-08 -.104216260312D+01
     .138394534588D-05  .106285184156D-01  .116098672152D-04  .515366387749D+04
     .345600000000D+06  .240281224251D-06 -.823050887899D+00  .894069671631D-07
     .970666747869D+00  .161156250000D+03  .685303803071D+00 -.781211112007D-08
    -.520378818724D-09  .100000000000D+01  .223000000000D+04  .000000000000D+00
     .240000000000D+01  .000000000000D+00  .139698386192D-08  .150000000000D+02
     .338400000000D+06  .400000000000D+01
19 22 10  6  0  0  0.0  .219957903028D-03  .511590769747D-11  .000000000000D+00
     .900000000000D+01  .228125000000D+02  .402588197986D-08  .110164483906D+01
     .931322574615D-06  .908465951215D-02  .106263905764D-04  .515372832870D+04
     .345600000000D+06  .150874257088D-06 -.714300809953D+00 -.158324837685D-06
     .976234716483D+00  .183468750000D+03  .219038210906D+01 -.779818196844D-08
    -.398588031363D-09  .100000000000D+01  .223000000000D+04  .000000000000D+00
     .240000000000D+01  .000000000000D+00 -.153668224812D-07  .900000000000D+01
     .338400000000D+06  .400000000000D+01
17 22 10  6  0  0  0.0  .665954314172D-03  .375166564481D-11  .000000000000D+00
     .180000000000D+02  .240000000000D+02  .408374153280D-08 -.103561855509D+01
     .131689012051D-05  .137772284215D-01  .111982226372D-04  .515363325882D+04
     .345600000000D+06 -.212341547012D-06 -.758991633334D+00  .147148966789D-06
     .977280907718D+00  .177687500000D+03 -.147616742988D+01 -.796604610351D-08
    -.365729519817D-09  .100000000000D+01  .223000000000D+04  .000000000000D+00
     .240000000000D+01  .000000000000D+00 -.111758708954D-07  .180000000000D+02
     .338400000000D+06  .400000000000D+01
